# From MPC133426
82P/Gehrels,e,1.1294,239.2152,226.4824,4.131845,0.1173513,0.12280715,293.3440,04/27.0/2025,2000,g 15.0,4.0
# From NK 932
83D/Russell,e,17.8305,226.2969,334.3828,3.843323,0.1308109,0.44141782,187.8794,04/27.0/2025,2000,g  9.0,4.0
# From MPEC 2020-FB5
84P/Giclas,e,7.5527,108.1425,281.6819,3.550152,0.1473444,0.51575173,263.2576,04/27.0/2025,2000,g  9.5,8.0
# From unp
85D/Boethin,e,4.1731,65.2944,333.0905,5.046172,0.0869483,0.77593203,150.5615,04/27.0/2025,2000,g  6.5,8.0
# From MPEC 2022-YB4
86P/Wild,e,15.5133,72.0943,181.0652,3.644934,0.1416346,0.36342773,166.9936,04/27.0/2025,2000,g 11.0,6.0
# From MPEC 2020-SI8
87P/Bus,e,2.6713,185.1183,51.9008,4.354380,0.1084713,0.21814232,204.3598,04/27.0/2025,2000,g  7.2,10.0
# From MPEC 2025-HB5
88P/Howell,e,4.3820,56.6686,235.8831,3.108343,0.1798501,0.56321481,301.4054,04/27.0/2025,2000,g 11.0,6.0
# From MPC182887
89P/Russell,e,12.0718,41.3446,250.4158,3.750706,0.1356858,0.40751314,53.7857,04/27.0/2025,2000,g 11.5,6.0
# From MPEC 2022-K19
90P/Gehrels,e,9.6402,13.1896,29.1819,6.053961,0.0661675,0.51068536,189.5036,04/27.0/2025,2000,g  8.5,6.0
# From MPEC 2023-VM5
91P/Russell,e,16.2592,242.5036,357.4922,4.130122,0.1174248,0.25920733,210.3983,04/27.0/2025,2000,g  7.5,6.0
# From MPEC 2014-J58
92P/Sanguin,e,19.4803,181.3646,163.7832,5.344147,0.0797786,0.66007812,295.4289,04/27.0/2025,2000,g 12.0,6.0
# From MPEC 2024-R10
93P/Lovas,e,12.2089,339.5523,75.0189,4.374422,0.1077266,0.61397290,320.0437,04/27.0/2025,2000,g  9.5,6.0
# From MPEC 2024-R10
94P/Russell,e,6.1876,70.8489,92.3751,3.510088,0.1498742,0.36596085,105.9382,04/27.0/2025,2000,g  9.0,6.0
# From MPC 75717
95P/Chiron,e,6.9276,209.1933,339.3548,13.69926,0.0194383,0.37818824,208.7587,04/27.0/2025,2000,g  6.5,2.0
# From MPC182887
96P/Machholz,e,57.5856,93.9625,14.7368,3.031050,0.1867731,0.96169860,152.5382,04/27.0/2025,2000,g 13.0,4.8
# From MPC106348
96P-B/Machholz,e,57.5032,14.6033,94.0084,3.030013,0.1868691,0.96172934,152.6384,04/27.0/2025,2000,g 13.0,4.8
# From MPC103849
96P-C/Machholz,e,58.5311,94.3495,15.5380,3.011920,0.1885553,0.95889850,359.8715,07/14.0/2012,2000,g  9.0,4.0
# From MPEC 2024-GJ3
97P/Metcalf-Brewington,e,17.9392,184.0753,230.1894,4.769630,0.0946187,0.45999816,110.3253,04/27.0/2025,2000,g  5.5,6.0
# From MPEC 2021-W31
98P/Takamizawa,e,10.6301,114.5271,157.7142,3.782875,0.1339587,0.56579012,210.7492,04/27.0/2025,2000,g  9.0,8.0
# From MPEC 2024-R10
99P/Kowal,e,4.3391,28.0686,174.5444,6.094090,0.0655150,0.22871777,72.9781,04/27.0/2025,2000,g  4.5,6.0
# From MPEC 2023-OA6
100P/Hartley,e,25.5676,37.6856,181.9314,3.430344,0.1551307,0.41137526,153.6959,04/27.0/2025,2000,g  9.0,8.0
# From MPEC 2024-R10
101P/Chernykh,e,5.0485,116.1260,277.9763,5.817109,0.0702495,0.59567944,135.6441,04/27.0/2025,2000,g 10.0,4.8
# From MPC105241
101P-B/Chernykh,e,5.0502,278.5096,115.5960,5.832651,0.0699689,0.59589058,133.8589,04/27.0/2025,2000,g  9.0,4.0
# From MPEC 2022-C56
102P/Shoemaker,e,25.8554,339.3977,20.6767,3.820026,0.1320093,0.45604661,205.4555,04/27.0/2025,2000,g  6.5,8.0
# From MPEC 2025-GB9
103P/Hartley,e,13.6084,219.7557,181.3257,3.475547,0.1521141,0.69353952,85.5730,04/27.0/2025,2000,g  8.5,8.0
# From MPEC 2023-G31
104P/Kowal,e,5.7012,207.1869,227.2982,3.208684,0.1714800,0.66590985,205.8815,04/27.0/2025,2000,g 16.0,4.0
# From MPEC 2025-GB9
105P/SingerBrewster,e,9.1673,192.3947,46.3326,3.473076,0.1522764,0.40914305,14.3510,04/27.0/2025,2000,g 11.5,6.0
# From MPEC 2024-R10
106P/Schuster,e,19.5347,48.8657,353.7959,3.768204,0.1347418,0.59357730,181.4820,04/27.0/2025,2000,g 14.0,4.8
# From MPEC 2015-M77
107P/Wilson-Harrington,e,2.7986,266.7285,95.5183,2.625968,0.2316168,0.63099485,226.2236,04/27.0/2025,2000,g  9.0,4.0
# From MPEC 2022-P82
108P/Ciffreo,e,11.4329,50.3011,354.5307,3.743719,0.1360659,0.55573419,180.2268,04/27.0/2025,2000,g  8.0,12.0
# From  105, 420
109P/Swift-Tuttle,e,113.1375,139.6872,153.2747,26.20506,0.0073473,0.96284942,86.8101,04/27.0/2025,2000,g  4.0,6.0
# From MPEC 2023-KD6
110P/Hartley,e,11.7112,287.4821,167.5547,3.603667,0.1440745,0.31920926,185.2111,04/27.0/2025,2000,g  1.0,12.0
# From MPC 75718
111P/Helin-Roman-Crockett,e,4.2262,89.8101,1.4145,4.152937,0.1164585,0.10717490,163.8971,04/27.0/2025,2000,g  5.0,8.0
# From MPEC 2021-S45
112P/Urata-Niijima,e,24.2029,31.8150,21.5467,3.522553,0.1490794,0.59084693,283.5535,04/27.0/2025,2000,g 14.0,6.0
# From MPEC 2024-JU4
113P/Spitaler,e,5.2875,306.6241,115.7293,3.695942,0.1387128,0.41970991,147.0616,04/27.0/2025,2000,g 13.5,4.0
# From MPEC 2023-A50
114P/Wiseman-Skiff,e,18.3040,271.0267,172.8062,3.540102,0.1479723,0.55613608,285.1339,04/27.0/2025,2000,g 11.5,6.0
# From MPEC 2023-J29
115P/Maury,e,11.6796,175.9930,120.9147,4.271332,0.1116501,0.51774938,193.7348,04/27.0/2025,2000,g 10.5,6.0
# From MPEC 2024-RQ6
116P/Wild,e,3.6044,20.9603,173.1613,3.486163,0.1514198,0.37063834,153.7343,04/27.0/2025,2000,g  2.5,10.0
# From MPC182887
117P/Helin-Roman-Alu,e,8.6853,58.8262,224.5924,4.114650,0.1180877,0.25331962,120.3852,04/27.0/2025,2000,g  2.5,8.0
# From MPEC 2024-MB8
118P/Shoemaker-Levy,e,10.0914,142.0570,314.9448,3.348928,0.1608220,0.45380741,142.2125,04/27.0/2025,2000,g 12.0,4.0
# From MPEC 2024-R10
119P/Parker-Hartley,e,7.3928,104.5433,322.2633,3.809133,0.1325760,0.38814811,131.0611,04/27.0/2025,2000,g  3.5,8.0
# From MPEC 2022-CN4
120P/Mueller,e,8.4819,358.7076,36.7798,3.969750,0.1246119,0.37421620,180.7357,04/27.0/2025,2000,g 12.0,4.0
# From MPEC 2025-HB5
121P/Shoemaker-Holt,e,20.1621,94.1053,11.9444,4.588991,0.1002601,0.18671128,66.8154,04/27.0/2025,2000,g  6.5,8.0
# From MPC 75718
122P/de Vico,e,86.0311,79.7424,13.0027,17.63299,0.0133111,0.96258810,143.7790,04/27.0/2025,2000,g  7.5,5.2
# From MPEC 2021-F20
123P/West-Hartley,e,15.2803,45.9007,103.9650,3.883306,0.1287958,0.44450955,293.8975,04/27.0/2025,2000,g 12.2,4.0
# From MPEC 2024-UQ8
124P/Mrkos,e,31.4065,359.9971,185.1211,3.376616,0.1588479,0.48643439,292.8651,04/27.0/2025,2000,g 13.5,2.8
# From MPEC 2024-UA9
125P/Spacewatch,e,9.9858,153.1497,87.1115,3.127904,0.1781656,0.51199834,74.0739,04/27.0/2025,2000,g 13.0,6.0
# From MPEC 2024-JU4
126P/IRAS,e,45.8709,357.8581,356.5631,5.628246,0.0738150,0.69606585,48.8593,04/27.0/2025,2000,g  6.0,8.0
# From MPEC 2024-R10
127P/Holt-Olmstead,e,14.2960,13.6161,6.3395,3.454250,0.1535230,0.35880512,152.1289,04/27.0/2025,2000,g 11.0,6.0
# From MPC 89014
128P/Shoemaker-Holt,e,4.3708,214.3224,210.4831,4.482514,0.1038536,0.32238050,313.7092,04/27.0/2025,2000,g  8.5,4.0
# From MPEC 2024-R10
129P/Shoemaker-Levy,e,3.4419,184.8470,307.8490,4.293876,0.1107720,0.08591430,97.0081,04/27.0/2025,2000,g 11.0,4.0
# From MPEC 2025-GB9
130P/McNaught-Hughes,e,6.0617,70.1813,246.2554,3.385907,0.1581946,0.46117735,59.6137,04/27.0/2025,2000,g 10.0,6.0
# From MPEC 2025-A40
131P/Mueller,e,7.3617,214.1375,179.2361,3.675042,0.1398977,0.34477790,318.7852,04/27.0/2025,2000,g 11.0,4.0
# From MPEC 2024-BE0
132P/Helin-Roman-Alu,e,5.3781,173.9808,216.5055,3.892249,0.1283522,0.56408603,161.8526,04/27.0/2025,2000,g 11.0,6.0
# From MPC 94676
133P/Elst-Pizarro,e,1.3899,160.1011,131.8675,3.163082,0.1752017,0.15568442,61.6535,04/27.0/2025,2000,g 15.4,2.0
# From MPC 89012
134P/Kowal-Vavrova,e,4.3334,201.9953,18.6672,6.272733,0.0627363,0.58544927,252.2313,04/27.0/2025,2000,g 11.5,4.0
# From MPEC 2024-C04
135P/Shoemaker-Levy,e,6.0632,213.0199,22.3827,3.801420,0.1329797,0.29355684,148.4959,04/27.0/2025,2000,g  7.0,8.0
# From MPC182888
136P/Mueller,e,9.4274,137.4217,225.3052,4.185188,0.1151149,0.29312174,13.0778,04/27.0/2025,2000,g 11.0,4.0
# From MPEC 2023-J29
137P/Shoemaker-Levy,e,4.8600,232.9265,141.2201,4.523573,0.1024429,0.57302620,238.1685,04/27.0/2025,2000,g 11.0,4.0
# From MPEC 2016-U66
138P/Shoemaker-Levy,e,10.0996,309.2720,95.6849,3.617246,0.1432640,0.53156201,312.5375,04/27.0/2025,2000,g 15.0,6.0
# From MPEC 2020-HN5
139P/Vaisala-Oterma,e,2.3375,242.1808,165.9682,4.513843,0.1027743,0.24832468,276.0612,04/27.0/2025,2000,g  9.5,4.0
# From MPEC 2015-E14
140P/Bowell-Skiff,e,3.7019,343.3762,172.1620,6.412486,0.0606966,0.69528083,217.2101,04/27.0/2025,2000,g 11.5,6.0
# From MPEC 2024-R10
141P/Machholz,e,13.9621,241.7763,153.6439,3.057082,0.1843926,0.73590702,293.4405,04/27.0/2025,2000,g 12.0,12.0
# From MPEC 2015-KD9
141P-A/Machholz,e,13.9416,153.5067,241.9253,3.057302,0.1843726,0.73592501,293.3805,04/27.0/2025,2000,g 12.0,12.0
# From MPC 24216
141P-B/Machholz,e,13.9856,153.5827,241.8143,3.055673,0.1845202,0.73568545,294.8000,04/27.0/2025,2000,g  9.0,4.0
# From MPC 37026
141P-D/Machholz,e,13.8334,153.2327,242.1737,3.065816,0.1836052,0.73687123,289.0224,04/27.0/2025,2000,g  9.0,4.0
# From MPEC 2015-R12
141P-E/Machholz,e,12.8152,246.1856,149.2667,3.012914,0.1884620,0.75023267,359.9529,09/19.0/1994,2000,g  9.0,4.0
# From MPEC 2015-R12
141P-F/Machholz,e,12.7898,246.1881,149.2374,3.010224,0.1887147,0.75000946,359.9630,09/19.0/1994,2000,g  9.0,4.0
# From MPEC 2015-R12
141P-G/Machholz,e,12.8259,246.3146,149.0784,3.005818,0.1891298,0.74964304,359.9802,09/19.0/1994,2000,g  9.0,4.0
# From MPC 95735
141P-H/Machholz,e,12.8431,246.0900,149.4500,3.008012,0.1889230,0.74682218,359.9270,08/24.0/2015,2000,g 18.5,4.0
# From MPEC 2022-SU8
141P-I/Machholz,e,13.9416,153.4614,241.9351,3.047767,0.1852386,0.73515304,294.8697,04/27.0/2025,2000,g 17.5,4.0
# From MPEC 2024-C04
142P/Ge-Wang,e,12.2451,175.9589,174.0677,5.003449,0.0880643,0.49600540,127.3914,04/27.0/2025,2000,g  8.5,6.0
# From MPC182888
143P/Kowal-Mrkos,e,5.4786,242.6434,304.3248,4.780108,0.0943078,0.38497148,302.7348,04/27.0/2025,2000,g 13.5,2.0
# From MPEC 2024-YC7
144P/Kushida,e,3.9318,242.9245,216.3561,3.833542,0.1313118,0.63496820,60.0336,04/27.0/2025,2000,g  8.5,8.0
# From MPC108598
145P/Shoemaker-Levy,e,11.2765,26.7951,10.3757,4.130703,0.1174000,0.54248800,327.1401,04/27.0/2025,2000,g 13.5,4.0
# From MPC182888
146P/Shoemaker-LINEAR,e,23.1187,53.3639,317.0527,4.026208,0.1220000,0.64757542,32.2783,04/27.0/2025,2000,g 15.0,4.0
# From MPEC 2024-UQ8
